NUSAT-1 (FRESCO)        
1 41557U 16033B   22143.08400641  .00020783  00000+0  62935-3 0  9997
2 41557  97.3867 240.7509 0012814 109.7618  13.1061 15.34113514333491
BEESAT-4                
1 41619U 16040W   22142.88346502  .00023060  00000+0  78327-3 0  9999
2 41619  97.2188 194.2050 0009534 196.4522 163.6412 15.30443701316819
CAS-2T & KS-1Q          
1 41847U 16066G   22142.88572895  .00000743  00000+0  12284-3 0  9999
2 41847  98.5519 207.5792 0362771 286.4202  69.7407 14.38552258290675
NAYIF-1 (EO-88)         
1 42017U 17008BX  22142.99832727  .00026562  00000+0  81107-3 0  9998
2 42017  97.2702 209.4929 0004074 353.0348   7.0837 15.33872223293172
ZHUHAI-1 02 (CAS-4B)    
1 42759U 17034B   22143.41449138  .00005145  00000+0  30928-3 0  9997
2 42759  43.0168 110.6997 0007629 139.5201   2.4622 15.11721355272568
ZHUHAI-1 01 (CAS-4A)    
1 42761U 17034D   22143.38427824  .00005249  00000+0  31449-3 0  9998
2 42761  43.0163 109.6677 0007856 137.7443 356.4223 15.11814657272566
MAX VALIER SAT          
1 42778U 17036P   22143.41899429  .00012475  00000+0  47778-3 0  9997
2 42778  97.2077 185.3840 0012431  62.1884 298.0614 15.26600819273089
RADFXSAT (FOX-1B)       
1 43017U 17073E   22142.70297811  .00005639  00000+0  42940-3 0  9993
2 43017  97.6773  37.9448 0247532 272.1980  85.0911 14.81266434243308
FOX-1D (AO-92)          
1 43137U 18004AC  22142.77138048  .00019003  00000+0  67715-3 0  9991
2 43137  97.3686 218.1667 0009291  95.7617 264.4682 15.28926172242425
DIWATA-2B               
1 43678U 18084H   22143.10140319  .00001151  00000+0  11887-3 0  9995
2 43678  97.9664 276.0763 0010216  17.2925 342.8638 14.92126894194079
ES'HAIL 2               
1 43700U 18090A   22143.46819694  .00000135  00000+0  00000+0 0  9998
2 43700   0.0115 323.0508 0001168 102.7552   9.5680  1.00271406 13027
FOX-1CLIFF (AO-95)      
1 43770U 18099N   22142.71184728  .00004848  00000+0  43292-3 0  9993
2 43770  97.6203 209.7302 0014022   7.5034 352.6395 14.96314690189162
ITASAT 1                
1 43786U 18099AE  22142.17284358  .00003835  00000+0  34214-3 0  9999
2 43786  97.6233 210.1094 0014690   1.5593 358.5672 14.96473746189128
JY1SAT (JO-97)          
1 43803U 18099AX  22142.73383892  .00006091  00000+0  53378-3 0  9993
2 43803  97.6197 210.4049 0014276   1.2460 358.8795 14.96947375189224
UWE-4                   
1 43880U 18111E   22142.68531328  .00006707  00000+0  57148-3 0  9999
2 43880  97.6690  49.4446 0013456  54.3630 305.8844 14.98014284185842
NEXUS (FO-99)           
1 43937U 19003F   22142.60372675  .00020360  00000+0  69655-3 0  9990
2 43937  97.1323 176.9688 0019252 242.5892 117.3391 15.30097331186023
PSAT2 (NO-104)          
1 44354U 19036R   22142.90251050  .00100901 -37410-5  96489-3 0  9993
2 44354  28.5265 355.0721 0242817  43.1945 318.7430 15.36225217160730
JAISAT-1                
1 44419U 19038F   22142.91225124  .00014294  00000+0  72385-3 0  9997
2 44419  97.6343 112.8402 0018212 214.6641 145.3406 15.16960197159184
DUCHIFAT-3              
1 44854U 19089C   22142.64787860  .00006410  00000+0  49916-3 0  9991
2 44854  36.9663 253.3126 0008824   5.4447  94.0573 15.00916834134056
CAS-6 (TO-108)          
1 44881U 19093C   22143.18704722  .00001003  00000+0  13384-3 0  9995
2 44881  97.8922 222.7582 0013640 268.6589  91.3080 14.81698952131032
RS-44 & BREEZE-KM R/B   
1 44909U 19096E   22143.56389158  .00000001  00000+0 -39840-4 0  9997
2 44909  82.5227 246.8071 0217561  18.2332 342.6416 12.79713196112379
ORBITAL FACTORY 2 (OF-2)
1 45113U 19071C   22142.68662928  .00035358  00000+0  76083-3 0  9990
2 45113  51.6374 186.0366 0010614  68.8642 291.3478 15.44238170129391
HUSKYSAT-1 (HO-107)     
1 45119U 19071J   22143.39042936  .00029574  00000+0  65440-3 0  9994
2 45119  51.6379 182.4644 0010385  68.9624 291.2472 15.43504208129498
BY70-2                  
1 45857U 20042B   22143.20240662  .00011949  00000+0  16023-2 0  9998
2 45857  97.9545 220.2898 0011092 189.8337 170.2689 14.79482505101722
SALSAT                  
1 46495U 20068K   22142.82267941  .00004387  00000+0  31764-3 0  9999
2 46495  97.7283  84.1196 0016888  12.0628 348.0999 15.04406378 90330
BY70-3                  
1 46839U 20079N   22143.12426470  .00033503  00000+0  81226-3 0  9991
2 46839  97.1987 215.5664 0006843  75.4082  12.9095 15.40969279 86348
RADFXSAT-2 (AO-109)     
1 47311U 21002C   22142.37561452  .00014489  00000+0  58693-3 0  9994
2 47311  60.6849 100.3859 0012405 303.4420  56.5481 15.24878867 74483
UVSQ-SAT                
1 47438U 21006AB  22142.72875732  .00010934  00000+0  58098-3 0  9996
2 47438  97.4381 202.2699 0011728  13.1115 347.0420 15.15408346 73389
DIY-1 (ARDUIQUBE)       
1 47963U 21022AH  22142.68774997  .00030438  00000+0  17290-2 0  9992
2 47963  97.5335  44.3565 0015815 215.0136 145.0056 15.12748968 63054
XW-3 (CAS-9)            
1 50466U 21131B   22143.21898192  .00000444  00000+0  16007-3 0  9999
2 50466  98.5794 220.4826 0004057 206.7695 245.7691 14.38490418 21289
